{
  "type": "FeatureCollection",
  "features": [
    {
      "type": "Feature",
      "geometry": {
        "type": "Polygon",
        "coordinates": [
          [
            [
              102.771167,
              16.797752
            ],
            [
              102.770798,
              16.795656
            ],
            [
              102.771658,
              16.795601
            ],
            [
              102.772334,
              16.795496
            ],
            [
              102.77283,
              16.795431
            ],
            [
              102.773226,
              16.795688
            ],
            [
              102.773441,
              16.795698
            ],
            [
              102.773511,
              16.796441
            ],
            [
              102.773581,
              16.797177
            ],
            [
              102.771907,
              16.797649
            ],
            [
              102.771167,
              16.797752
            ]
          ]
        ]
      },
      "properties": {
        "Area": "34-3-52.06",
        "area_sqm": 55808.22,
        "measured_at": "2026-02-25T07:56:31.409Z",
        "note": "ดงมันวิทยาคม"
      }
    },
    {
      "type": "Feature",
      "geometry": {
        "type": "Polygon",
        "coordinates": [
          [
            [
              102.7519029378891,
              16.789827759604574
            ],
            [
              102.7519190311432,
              16.789375814196333
            ],
            [
              102.75243937969209,
              16.789391221443864
            ],
            [
              102.75251448154451,
              16.789771266487364
            ],
            [
              102.7519029378891,
              16.789827759604574
            ]
          ]
        ]
      },
      "properties": {
        "Area": "1-3-0.07",
        "area_sqm": 2800.29,
        "measured_at": "2026-02-26T07:05:40.603Z",
        "note": "บ่อน้ำ"
      }
    },
    {
      "type": "Feature",
      "geometry": {
        "type": "Polygon",
        "coordinates": [
          [
            [
              102.77069449424745,
              16.809748238732137
            ],
            [
              102.77105927467348,
              16.80965066994313
            ],
            [
              102.77227163314821,
              16.810004998463352
            ],
            [
              102.77231454849243,
              16.809927970580485
            ],
            [
              102.77107000350954,
              16.808515787183726
            ],
            [
              102.7708822488785,
              16.80896255179539
            ],
            [
              102.77069985866548,
              16.809481208242932
            ],
            [
              102.77069449424745,
              16.809748238732137
            ]
          ]
        ]
      },
      "properties": {
        "Area": "7-2-45.78",
        "area_sqm": 12183.13,
        "measured_at": "2026-03-02T03:25:41.853Z",
        "note": "เกษตร"
      }
    },
    {
      "type": "Feature",
      "geometry": {
        "type": "Polygon",
        "coordinates": [
          [
            [
              102.76917636394502,
              16.806297354215932
            ],
            [
              102.76995420455934,
              16.806086807146425
            ],
            [
              102.77035117149354,
              16.806939264570897
            ],
            [
              102.76990056037903,
              16.807267921831848
            ],
            [
              102.76929438114168,
              16.80673385349365
            ],
            [
              102.76917636394502,
              16.806297354215932
            ]
          ]
        ]
      },
      "properties": {
        "Area": "6-0-2.14",
        "area_sqm": 9608.55,
        "measured_at": "2026-03-02T03:31:16.897Z",
        "note": "อยู่อาศัย"
      }
    }
  ]
}